STARLINK-4760           
1 53828U 22114L   22273.66667824  .00109442  00000+0  77682-3 0  9999
2 53828  53.2150 201.2672 0001400  87.9774 220.1029 15.73117060  2404
STARLINK-4759           
1 53829U 22114M   22273.66667824  .00021169  00000+0  15490-3 0  9998
2 53829  53.2161 201.2740 0001145  19.1642 287.1201 15.73194640  2404
STARLINK-4761           
1 53830U 22114N   22273.66667824 -.00014621  00000+0 -99633-4 0  9999
2 53830  53.2153 201.2653 0000996  81.5577 227.5657 15.73272085  2406
STARLINK-4649           
1 53831U 22114P   22273.66667824 -.00013825  00000+0 -94209-4 0  9999
2 53831  53.2152 201.2702 0000457  79.6003 227.2336 15.73212993  2408
STARLINK-4747           
1 53832U 22114Q   22273.58334491  .00056503  00000+0  40534-3 0  9991
2 53832  53.2152 201.6749 0001206  75.8615 122.3372 15.73139563  1308
STARLINK-4771           
1 53833U 22114R   22273.66667824  .00111686  00000+0  79209-3 0  9995
2 53833  53.2146 201.2643 0001337  82.4915 226.1982 15.73127689  2401
STARLINK-4737           
1 53834U 22114S   22273.58334491  .00057295  00000+0  41071-3 0  9999
2 53834  53.2154 201.6732 0001231  77.7380 121.6561 15.73151885  1305
STARLINK-4783           
1 53835U 22114T   22273.66667824 -.00023309  00000+0 -16152-3 0  9991
2 53835  53.2146 201.2625 0001141  84.4755 225.2831 15.73286397  2405
STARLINK-4778           
1 53836U 22114U   22273.66667824  .00077520  00000+0  55279-3 0  9997
2 53836  53.2143 201.2556 0001082  67.1717 245.6521 15.73152397  2400
STARLINK-4776           
1 53837U 22114V   22273.66667824  .00074261  00000+0  53005-3 0  9992
2 53837  53.2154 201.2627 0001325  87.0899 223.9428 15.73147403  2401
STARLINK-4773           
1 53838U 22114W   22273.66667824 -.00012550  00000+0 -84825-4 0  9993
2 53838  53.2153 201.2580 0001046  68.1387 245.0975 15.73284056  2409
STARLINK-4784           
1 53839U 22114X   22273.58334491 -.00044917  00000+0 -31718-3 0  9990
2 53839  53.2158 201.6734 0001049  62.2181 137.7652 15.73211335  1307
STARLINK-4766           
1 53840U 22114Y   22273.66667824  .00101204  00000+0  71911-3 0  9990
2 53840  53.2147 201.2520 0001025  82.9677 232.2189 15.73126139  2404
STARLINK-4750           
1 53841U 22114Z   22273.66667824  .00013729  00000+0  10191-3 0  9998
2 53841  53.2153 201.2558 0000953  71.4538 242.4911 15.73238461  2409
STARLINK-4754           
1 53842U 22114AA  22273.58334491  .00024958  00000+0  18105-3 0  9990
2 53842  53.2151 201.6631 0001227  69.7109 134.1691 15.73285810  1303
STARLINK-4769           
1 53843U 22114AB  22273.66667824 -.00009672  00000+0 -64238-4 0  9996
2 53843  53.2145 201.2515 0000909  67.7117 246.7106 15.73320300  2404
STARLINK-4745           
1 53844U 22114AC  22273.66667824  .00092175  00000+0  65554-3 0  9996
2 53844  53.2151 201.2484 0001033  67.0650 250.5214 15.73144484  2401
STARLINK-4753           
1 53845U 22114AD  22273.66667824  .00005346  00000+0  42371-4 0  9994
2 53845  53.2158 201.2544 0001097  67.3421 248.3339 15.73263350  2402
STARLINK-4746           
1 53846U 22114AE  22273.66667824  .00078906  00000+0  56277-3 0  9996
2 53846  53.2157 201.2485 0001293  91.8050 226.9679 15.73141155  2401
STARLINK-4777           
1 53847U 22114AF  22273.66667824  .00080991  00000+0  57730-3 0  9999
2 53847  53.2150 201.2486 0001294  78.7070 238.3237 15.73144410  2407
STARLINK-4780           
1 53848U 22114AG  22273.66667824  .00013120  00000+0  97575-4 0  9992
2 53848  53.2150 201.2436 0001025  85.7700 234.1194 15.73242276  2408
STARLINK-4770           
1 53849U 22114AH  22273.66667824  .00028722  00000+0  20784-3 0  9994
2 53849  53.2158 201.2499 0000568  63.8797 254.1484 15.73258895  2408
STARLINK-4767           
1 53850U 22114AJ  22273.66667824  .00005276  00000+0  41881-4 0  9997
2 53850  53.2150 201.2401 0001078  73.2877 248.3620 15.73258795  2402
STARLINK-4755           
1 53851U 22114AK  22273.66667824  .00054305  00000+0  38959-3 0  9996
2 53851  53.2150 201.2451 0001092  94.3667 225.0220 15.73155280  2408
STARLINK-4797           
1 53852U 22114AL  22273.66667824  .00112992  00000+0  80065-3 0  9999
2 53852  53.2154 201.2390 0001278  81.7258 241.2358 15.73143130  2400
STARLINK-4794           
1 53853U 22114AM  22273.66667824  .00082675  00000+0  58898-3 0  9993
2 53853  53.2161 201.2455 0001370  82.9522 237.6422 15.73148882  2401
STARLINK-4800           
1 53854U 22114AN  22273.58334491 -.00031685  00000+0 -22224-3 0  9997
2 53854  53.2160 201.6506 0001016  78.2455 133.6539 15.73195631  1308
STARLINK-4703           
1 53855U 22114AP  22273.66667824 -.00012872  00000+0 -87067-4 0  9990
2 53855  53.2146 201.2403 0001270  84.0802 236.8699 15.73297287  2403
STARLINK-4795           
1 53856U 22114AQ  22273.58334491  .00022793  00000+0  16627-3 0  9997
2 53856  53.2149 201.6409 0001060  86.3699 128.5171 15.73215120  1309
STARLINK-4809           
1 53857U 22114AR  22273.58334491  .00000955  00000+0  11208-4 0  9995
2 53857  53.2152 201.6513 0000891  78.4001 131.7238 15.73217978  1303
STARLINK-4798           
1 53858U 22114AS  22273.66667824 -.00002148  00000+0 -10910-4 0  9991
2 53858  53.2155 201.2353 0000815  80.4587 244.3191 15.73178580  2409
STARLINK-4790           
1 53859U 22114AT  22273.58334491 -.00018645  00000+0 -12876-3 0  9995
2 53859  53.2151 201.6482 0000811  77.6927 133.6139 15.73195655  1307
STARLINK-4799           
1 53860U 22114AU  22273.58334491 -.00062970  00000+0 -44749-3 0  9991
2 53860  53.2149 201.6423 0000992  75.3228 138.9622 15.73207100  1304
STARLINK-4781           
1 53861U 22114AV  22273.58334491 -.00019283  00000+0 -13322-3 0  9994
2 53861  53.2149 201.6444 0000988  76.5506 136.5750 15.73213108  1306
STARLINK-4792           
1 53862U 22114AW  22273.66667824  .00017757  00000+0  13060-3 0  9994
2 53862  53.2149 201.2285 0000851  71.3543 256.3578 15.73211666  2407
STARLINK-4788           
1 53863U 22114AX  22273.58334491 -.00015912  00000+0 -10924-3 0  9996
2 53863  53.2150 201.6428 0001360  65.2778 148.4443 15.73185311  1308
STARLINK-4779           
1 53864U 22114AY  22273.58334491 -.00021711  00000+0 -15067-3 0  9994
2 53864  53.2150 201.6378 0000900  70.2164 146.4465 15.73201908  1300
STARLINK-4785           
1 53865U 22114AZ  22273.58334491 -.00039250  00000+0 -27634-3 0  9995
2 53865  53.2151 201.6392 0001000  72.1274 143.9649 15.73218265  1303
STARLINK-4762           
1 53866U 22114BA  22273.66667824  .00004689  00000+0  37739-4 0  9998
2 53866  53.2147 201.2217 0001025  77.0894 253.5494 15.73242719  2409
STARLINK-4793           
1 53867U 22114BB  22273.66667824 -.00002468  00000+0 -13125-4 0  9997
2 53867  53.2146 201.2234 0000660  77.6474 251.6496 15.73288296  2403
STARLINK-4789           
1 53868U 22114BC  22273.66667824  .00118531  00000+0  83573-3 0  9998
2 53868  53.2159 201.2207 0001455 105.5645 227.5171 15.73238108  2401
STARLINK-4810           
1 53869U 22114BD  22273.58334491 -.00023175  00000+0 -16113-3 0  9998
2 53869  53.2154 201.6360 0001000  60.9958 156.8691 15.73205093  1304
STARLINK-4732           
1 53870U 22114BE  22273.58334491 -.00048312  00000+0 -34162-3 0  9994
2 53870  53.2153 201.6329 0000939  72.6484 147.0197 15.73212278  1300
STARLINK-4740           
1 53871U 22114BF  22273.66667824 -.00035772  00000+0 -25141-3 0  9996
2 53871  53.2150 201.2182 0001087  80.1444 252.3452 15.73212653  2409
FALCON 9 DEB            
1 53872U 22114BG  22273.36238844  .01214398  11615-4  90657-3 0  9995
2 53872  53.2164 201.3424 0051858  90.5144 270.1835 16.11508862  2921
FALCON 9 DEB            
1 53873U 22114BH  22273.35941116  .01118988  11616-4  85364-3 0  9996
2 53873  53.2117 201.3158 0047916  91.7863 268.8663 16.11663174  2926
FALCON 9 DEB            
1 53874U 22114BJ  22273.35117103  .01109815  11653-4  78241-3 0  9994
2 53874  53.2143 201.2534 0045826  84.6019 276.0244 16.12950085  2922
FALCON 9 DEB            
1 53875U 22114BK  22273.34926450  .01227688  11672-4  81862-3 0  9990
2 53875  53.2157 201.2416 0045490  86.4375 274.1864 16.13720127  2929
CHUANGXIN 16B (CX-16B)  
1 53876U 22102B   22273.69836394  .00004370  00000+0  41032-3 0  9996
2 53876  28.9976 120.7268 0004828 289.3104  70.6969 14.91811901  1639
YUNHAI-1 03             
1 53877U 22115A   22273.56479863  .00000057  00000+0  36750-4 0  9991
2 53877  98.4972 272.1081 0001470  97.4111 262.7224 14.32792440  1380
CZ-2D R/B               
1 53878U 22115B   22273.42141350  .00000709  00000+0  11992-3 0  9998
2 53878  98.5448 272.5664 0124563  13.6328 346.8186 14.67932152  1396
SOYUZ-MS 22             
1 53879U 22116A   22273.53894250  .00014752  00000+0  26205-3 0  9992
2 53879  51.6446 174.6267 0002612 315.7600 101.1726 15.50422431361528
2022-118A               
1 53884U 22118A   22273.60966095  .00004093  00000+0  17754-3 0  9991
2 53884  97.5201 280.1224 0013579 239.7579 266.6047 15.22853378   869
2022-118B               
1 53885U 22118B   22273.60975352  .00004770  00000+0  20267-3 0  9993
2 53885  97.5198 280.1281 0010769 248.1406 271.7135 15.23498624   853
STARLINK A              
1 53886U 22119A   22273.50001157 -.01302717  48293-3 -41444-2 0  9991
2 53886  53.2173 225.9767 0034446  62.7714 343.0722 15.89472168  1305
STARLINK B              
1 53887U 22119B   22273.50001157 -.01302170  48275-3 -41307-2 0  9993
2 53887  53.2173 225.9743 0034683  62.7320 343.9576 15.89513677  1303
STARLINK C              
1 53888U 22119C   22273.50001157 -.01304708  48434-3 -41599-2 0  9993
2 53888  53.2173 225.9761 0033519  66.5950 339.5809 15.89484816  1304
STARLINK D              
1 53889U 22119D   22273.50001157 -.01302273  48274-3 -41346-2 0  9991
2 53889  53.2173 225.9747 0034698  62.7765 343.7153 15.89496082  1307
STARLINK E              
1 53890U 22119E   22273.50001157  .00191970  24721-4  55586-3 0  9994
2 53890  53.2248 225.9732 0040282  66.8944 343.7310 15.91176347  1303
STARLINK F              
